[{"OBJECT_NAME":"SHIYAN-6 01 (SY-6 01)","OBJECT_ID":"2018-094B","EPOCH":"2026-03-09T23:04:36.967872","MEAN_MOTION":15.28649156,"ECCENTRICITY":0.00144834,"INCLINATION":97.3669,"RA_OF_ASC_NODE":84.0964,"ARG_OF_PERICENTER":135.6758,"MEAN_ANOMALY":224.5644,"EPHEMERIS_TYPE":0,"CLASSIFICATION_TYPE":"U","NORAD_CAT_ID":43711,"ELEMENT_SET_NO":999,"REV_AT_EPOCH":40632,"BSTAR":0.00024768444,"MEAN_MOTION_DOT":6.847e-5,"MEAN_MOTION_DDOT":0},{"OBJECT_NAME":"STARLINK-2431","OBJECT_ID":"2021-018BE","EPOCH":"2026-03-09T17:15:23.630400","MEAN_MOTION":15.30199783,"ECCENTRICITY":0.00012288,"INCLINATION":53.1617,"RA_OF_ASC_NODE":216.7805,"ARG_OF_PERICENTER":72.2353,"MEAN_ANOMALY":287.8782,"EPHEMERIS_TYPE":0,"CLASSIFICATION_TYPE":"U","NORAD_CAT_ID":47839,"ELEMENT_SET_NO":999,"REV_AT_EPOCH":27710,"BSTAR":-4.2907816e-5,"MEAN_MOTION_DOT":-1.63e-5,"MEAN_MOTION_DDOT":0}]
